0 COSMOS 2251 DEB
1 35464U 93036ALJ 13283.38511023  .00006338  00000-0  15070-2 0  5679
2 35464 074.0197 062.9141 0059322 229.9490 161.2394 14.52979038236208
0 COSMOS 2251 DEB
1 35464U 93036ALJ 13285.81793051  .00005437  00000-0  12934-2 0  5688
2 35464 074.0212 058.3166 0059402 224.9293 286.5800 14.53001139236568
0 COSMOS 2251 DEB
1 35464U 93036ALJ 13290.33901067  .00007846  00000-0  18608-2 0  5690
2 35464 074.0215 049.7760 0059106 215.5165 175.6588 14.53055652237213
0 COSMOS 2251 DEB
1 35464U 93036ALJ 13292.77194854  .00007042  00000-0  16701-2 0  5700
2 35464 074.0228 045.1848 0059047 210.7665 302.0539 14.53085683237578
0 COSMOS 2251 DEB
1 35464U 93036ALJ 13295.73197322  .00007672  00000-0  18176-2 0  5710
2 35464 074.0212 039.5921 0058800 204.5139 306.4011 14.53121490238002
